41861,GSAT0213 (GALILEO 17),2016,844.71,723.0,+,55.02,Active,1,MEO,French Guiana,ESA,Commercial,Navigation (Global or Regional Positioning),Ariane,1 41861U 16069C   24019.09254131 -.00000021  00000+0  00000+0 0  9995,2 41861  55.0222 125.4817 0003757 260.6405  99.3006  1.70473399 44515,1.70473399,0.0003757,MEO
41862,GSAT0214 (GALILEO 18),2016,844.7,723.0,+,55.02,Active,1,MEO,French Guiana,ESA,Commercial,Navigation (Global or Regional Positioning),Ariane,1 41862U 16069D   24020.41234185 -.00000032  00000+0  00000+0 0  9993,2 41862  55.0221 125.4390 0005143 275.6498  84.2702  1.70473845 44668,1.70473845,0.0005143,MEO
42738,QZS-2 (MICHIBIKI-2),2017,1436.04,4000.0,+,40.81,Active,1,GSO,Japan,Japan,Government,Navigation (Global or Regional Positioning),H2A,1 42738U 17028A   24020.53521556 -.00000119  00000+0  00000+0 0  9992,2 42738  40.8131 255.8861 0753027 269.8375 288.1430  1.00275677 24324,1.00275677,0.0753027,GSO
42917,QZS-3 (MICHIBIKI-3),2017,1436.12,4000.0,+,0.06,Active,1,GSO,Japan,Japan,Government,Navigation (Global or Regional Positioning),H2A,1 42917U 17048A   24020.53521556 -.00000344  00000+0  00000+0 0  9993,2 42917   0.0636 215.2536 0002793  86.4756 137.3737  1.00269915 23448,1.00269915,0.0002793,GEO
42939,COSMOS 2522 [GLONASS-M],2017,675.73,1415.0,+,64.09,Active,1,MEO,Russia,Russia/USSR,Commercial/Military,Navigation (Global or Regional Positioning),Soyuz,1 42939U 17055A   24017.85469605  .00000095  00000+0  00000+0 0  9994,2 42939  64.0895 221.9437 0005242 230.7695 129.2312  2.13101884 49195,2.13101884,0.0005242,MEO
43001,BEIDOU-3 M1,2017,773.23,800.0,+,55.94,Active,1,MEO,PRC,China,Government/Military,Navigation (Global or Regional Positioning),Long March,1 43001U 17069A   24020.13967620 -.00000070  00000+0  00000+0 0  9999,2 43001  55.9457  92.2257 0010519 291.5263  68.3996  1.86231219 42231,1.86231219,0.0010519,MEO
43002,BEIDOU-3 M2,2017,773.23,800.0,+,55.94,Active,1,MEO,PRC,China,Government/Military,Navigation (Global or Regional Positioning),Long March,1 43002U 17069B   24017.92882091 -.00000050  00000+0  00000+0 0  9999,2 43002  55.9433  92.3361 0007684 311.9185  48.0578  1.86230973 42183,1.86230973,0.0007684,MEO
43055,GSAT0215 (GALILEO 19),2017,844.7,715.0,+,55.41,Active,1,MEO,French Guiana,ESA,Commercial,Navigation (Global or Regional Positioning),Ariane,1 43055U 17079A   24019.72851724  .00000054  00000+0  00000+0 0  9990,2 43055  55.4133 245.7147 0001601  15.7842 344.2935  1.70473975 37996,1.70473975,0.0001601,MEO
43056,GSAT0216 (GALILEO 20),2017,844.7,715.0,+,55.41,Active,1,MEO,French Guiana,ESA,Commercial,Navigation (Global or Regional Positioning),Ariane,1 43056U 17079B   24018.84714737  .00000050  00000+0  00000+0 0  9991,2 43056  55.4137 245.7390 0002638 328.6407  31.4138  1.70474110 37997,1.7047411,0.0002638,MEO
43057,GSAT0217 (GALILEO 21),2017,844.7,715.0,+,55.41,Active,1,MEO,French Guiana,ESA,Commercial,Navigation (Global or Regional Positioning),Ariane,1 43057U 17079C   24019.65414260  .00000054  00000+0  00000+0 0  9994,2 43057  55.4110 245.7155 0002903 346.5131  13.5516  1.70473993 37995,1.70473993,0.0002903,MEO
43107,BEIDOU-3 M7,2018,773.23,800.0,+,55.04,Active,1,MEO,PRC,China,Government/Military,Navigation (Global or Regional Positioning),Long March,1 43107U 18003A   24020.36364807 -.00000112  00000+0  00000+0 0  9995,2 43107  55.0361 332.7441 0003706  45.7436 314.2794  1.86232287 40986,1.86232287,0.0003706,MEO
43108,BEIDOU-3 M8,2018,773.23,800.0,+,55.03,Active,1,MEO,PRC,China,Government/Military,Navigation (Global or Regional Positioning),Long March,1 43108U 18003B   24020.30287478 -.00000111  00000+0  00000+0 0  9997,2 43108  55.0292 332.7325 0004456 275.0396  84.9023  1.86230772 40991,1.86230772,0.0004456,MEO
43207,BEIDOU-3 M4,2018,773.23,800.0,+,55.9,Active,1,MEO,PRC,China,Government/Military,Navigation (Global or Regional Positioning),Long March,1 43207U 18018A   24019.67076415 -.00000068  00000+0  00000+0 0  9999,2 43207  55.9042  92.3355 0004629 336.1078  23.9085  1.86231158 40364,1.86231158,0.0004629,MEO
43208,BEIDOU-3 M3,2018,773.23,800.0,+,55.9,Active,1,MEO,PRC,China,Government/Military,Navigation (Global or Regional Positioning),Long March,1 43208U 18018B   24020.27432251 -.00000070  00000+0  00000+0 0  9995,2 43208  55.9041  92.3198 0007990 300.6254  59.3337  1.86231325 40375,1.86231325,0.000799,MEO
43245,BEIDOU-3 M9,2018,773.23,800.0,+,54.93,Active,1,MEO,PRC,China,Government/Military,Navigation (Global or Regional Positioning),Long March,1 43245U 18029A   24019.95951693 -.00000110  00000+0  00000+0 0  9992,2 43245  54.9253 330.4794 0001855 299.7349  60.2412  1.86232426 39528,1.86232426,0.0001855,MEO
43246,BEIDOU-3 M10,2018,773.23,800.0,+,54.92,Active,1,MEO,PRC,China,Government/Military,Navigation (Global or Regional Positioning),Long March,1 43246U 18029B   24019.88936415 -.00000109  00000+0  00000+0 0  9998,2 43246  54.9225 330.5105 0004833 351.2931   8.6931  1.86232624 39505,1.86232624,0.0004833,MEO
43508,COSMOS 2527 [GLONASS-M],2018,675.73,1415.0,+,65.14,Active,1,MEO,Russia,Russia/USSR,Commercial/Military,Navigation (Global or Regional Positioning),Soyuz,1 43508U 18053A   24019.69048670 -.00000046  00000+0  00000+0 0  9992,2 43508  65.1429 103.3421 0009287 230.7774 129.1720  2.13102164 43536,2.13102164,0.0009287,MEO
43539,BEIDOU-2 IGSO-7,2018,1436.49,800.0,+,55.13,Active,1,GSO,PRC,China,Government/Military,Navigation (Global or Regional Positioning),Long March,1 43539U 18057A   24010.86206958 -.00000075  00000+0  00000+0 0  9997,2 43539  55.1290 170.7303 0064938 228.9651 129.2611  1.00244014 20237,1.00244014,0.0064938,GSO
43564,GSAT0221 (GALILEO 25),2018,844.7,715.0,+,57.3,Active,1,MEO,French Guiana,ESA,Commercial,Navigation (Global or Regional Positioning),Ariane,1 43564U 18060A   24020.36031043 -.00000089  00000+0  00000+0 0  9991,2 43564  57.2998   5.4763 0005936 287.3855  72.5499  1.70475595 34185,1.70475595,0.0005936,MEO
43565,GSAT0222 (GALILEO 26),2018,844.7,715.0,+,57.3,Active,1,MEO,French Guiana,ESA,Commercial,Navigation (Global or Regional Positioning),Ariane,1 43565U 18060B   24018.81883597 -.00000085  00000+0  00000+0 0  9994,2 43565  57.3032   5.5191 0004872 265.0015  94.9452  1.70475280 34202,1.7047528,0.0004872,MEO
43566,GSAT0219 (GALILEO 23),2018,844.7,715.0,+,57.3,Active,1,MEO,French Guiana,ESA,Commercial,Navigation (Global or Regional Positioning),Ariane,1 43566U 18060C   24020.21413502 -.00000089  00000+0  00000+0 0  9991,2 43566  57.3025   5.4836 0005225 293.8279  66.1179  1.70475613 34201,1.70475613,0.0005225,MEO
43567,GSAT0220 (GALILEO 24),2018,844.7,715.0,+,57.3,Active,1,MEO,French Guiana,ESA,Commercial,Navigation (Global or Regional Positioning),Ariane,1 43567U 18060D   24019.26148249 -.00000086  00000+0  00000+0 0  9995,2 43567  57.3023   5.5089 0005456 289.4597  70.4832  1.70475422 34179,1.70475422,0.0005456,MEO
43581,BEIDOU-3 M5,2018,773.24,800.0,+,54.15,Active,1,MEO,PRC,China,Government/Military,Navigation (Global or Regional Positioning),Long March,1 43581U 18062A   24019.03644582  .00000109  00000+0  00000+0 0  9994,2 43581  54.1537 212.2491 0001627 349.7481  10.2767  1.86228563 37241,1.86228563,0.0001627,MEO
43582,BEIDOU-3 M6,2018,773.24,800.0,+,54.15,Active,1,MEO,PRC,China,Government/Military,Navigation (Global or Regional Positioning),Long March,1 43582U 18062B   24020.51383360  .00000109  00000+0  00000+0 0  9994,2 43582  54.1531 212.1882 0007079  40.3476 319.7343  1.86229568 37270,1.86229568,0.0007079,MEO
43602,BEIDOU-3 M12,2018,773.23,800.0,+,54.24,Active,1,MEO,PRC,China,Government/Military,Navigation (Global or Regional Positioning),Long March,1 43602U 18067A   24020.44883516  .00000109  00000+0  00000+0 0  9992,2 43602  54.2423 210.8586 0008209  31.1245 328.9511  1.86231548 36750,1.86231548,0.0008209,MEO
43603,BEIDOU-3 M11,2018,773.23,800.0,+,54.24,Active,1,MEO,PRC,China,Government/Military,Navigation (Global or Regional Positioning),Long March,1 43603U 18067B   24020.04573835  .00000110  00000+0  00000+0 0  9991,2 43603  54.2393 210.8377 0004900  28.6811 331.3728  1.86231468 36770,1.86231468,0.00049,MEO
43622,BEIDOU-3 M13,2018,773.23,800.0,+,55.87,Active,1,MEO,PRC,China,Government/Military,Navigation (Global or Regional Positioning),Long March,1 43622U 18072A   24020.00546754 -.00000069  00000+0  00000+0 0  9998,2 43622  55.8745  91.8606 0007281 285.2033  74.7544  1.86231052 36282,1.86231052,0.0007281,MEO
