OBJECT_NAME,OBJECT_ID,EPOCH,MEAN_MOTION,ECCENTRICITY,INCLINATION,RA_OF_ASC_NODE,ARG_OF_PERICENTER,MEAN_ANOMALY,EPHEMERIS_TYPE,CLASSIFICATION_TYPE,NORAD_CAT_ID,ELEMENT_SET_NO,REV_AT_EPOCH,BSTAR,MEAN_MOTION_DOT,MEAN_MOTION_DDOT
GSAT0213 (GALILEO 17),2016-069C,2024-01-19T02:13:15.569184,1.70473399,.0003757,55.0222,125.4817,260.6405,99.3006,0,U,41861,999,4451,0,-.21E-6,0
GSAT0214 (GALILEO 18),2016-069D,2024-01-20T09:53:46.335840,1.70473845,.0005143,55.0221,125.4390,275.6498,84.2702,0,U,41862,999,4466,0,-.32E-6,0
QZS-2 (MICHIBIKI-2),2017-028A,2024-01-20T12:50:42.624384,1.00275677,.0753027,40.8131,255.8861,269.8375,288.1430,0,U,42738,999,2431,0,-.119E-5,0
QZS-3 (MICHIBIKI-3),2017-048A,2024-01-20T12:50:42.624384,1.00269915,.0002793,0.0636,215.2536,86.4756,137.3737,0,U,42917,999,2344,0,-.344E-5,0
COSMOS 2522,2017-055A,2024-01-17T20:30:45.738720,2.13101884,.0005242,64.0895,221.9437,230.7695,129.2312,0,U,42939,999,4919,0,.95E-6,0
BEIDOU-3 M1,2017-069A,2024-01-20T03:21:08.023680,1.86231219,.0010519,55.9457,92.2257,291.5263,68.3996,0,U,43001,999,4223,0,-.7E-6,0
BEIDOU-3 M2,2017-069B,2024-01-17T22:17:30.126624,1.86230973,.0007684,55.9433,92.3361,311.9185,48.0578,0,U,43002,999,4218,0,-.5E-6,0
GSAT0215 (GALILEO 19),2017-079A,2024-01-19T17:29:03.889536,1.70473975,.0001601,55.4133,245.7147,15.7842,344.2935,0,U,43055,999,3799,0,.54E-6,0
GSAT0216 (GALILEO 20),2017-079B,2024-01-18T20:19:53.532768,1.70474110,.0002638,55.4137,245.7390,328.6407,31.4138,0,U,43056,999,3799,0,.5E-6,0
GSAT0217 (GALILEO 21),2017-079C,2024-01-19T15:41:57.920640,1.70473993,.0002903,55.4110,245.7155,346.5131,13.5516,0,U,43057,999,3799,0,.54E-6,0
BEIDOU-3 M7,2018-003A,2024-01-20T08:43:39.193248,1.86232287,.0003706,55.0361,332.7441,45.7436,314.2794,0,U,43107,999,4099,0,-.112E-5,0
BEIDOU-3 M8,2018-003B,2024-01-20T07:16:08.380992,1.86230772,.0004456,55.0292,332.7325,275.0396,84.9023,0,U,43108,999,4099,0,-.111E-5,0
BEIDOU-3 M4,2018-018A,2024-01-19T16:05:54.022560,1.86231158,.0004629,55.9042,92.3355,336.1078,23.9085,0,U,43207,999,4036,0,-.68E-6,0
BEIDOU-3 M3,2018-018B,2024-01-20T06:35:01.464864,1.86231325,.000799,55.9041,92.3198,300.6254,59.3337,0,U,43208,999,4037,0,-.7E-6,0
BEIDOU-3 M9,2018-029A,2024-01-19T23:01:42.262752,1.86232426,.0001855,54.9253,330.4794,299.7349,60.2412,0,U,43245,999,3952,0,-.11E-5,0
BEIDOU-3 M10,2018-029B,2024-01-19T21:20:41.062560,1.86232624,.0004833,54.9225,330.5105,351.2931,8.6931,0,U,43246,999,3950,0,-.109E-5,0
COSMOS 2527,2018-053A,2024-01-19T16:34:18.050880,2.13102164,.0009287,65.1429,103.3421,230.7774,129.1720,0,U,43508,999,4353,0,-.46E-6,0
BEIDOU-2 IGSO-7,2018-057A,2024-01-10T20:41:22.811712,1.00244014,.0064938,55.1290,170.7303,228.9651,129.2611,0,U,43539,999,2023,0,-.75E-6,0
GSAT0221 (GALILEO 25),2018-060A,2024-01-20T08:38:50.821152,1.70475595,.0005936,57.2998,5.4763,287.3855,72.5499,0,U,43564,999,3418,0,-.89E-6,0
GSAT0222 (GALILEO 26),2018-060B,2024-01-18T19:39:07.427808,1.70475280,.0004872,57.3032,5.5191,265.0015,94.9452,0,U,43565,999,3420,0,-.85E-6,0
GSAT0219 (GALILEO 23),2018-060C,2024-01-20T05:08:21.265728,1.70475613,.0005225,57.3025,5.4836,293.8279,66.1179,0,U,43566,999,3420,0,-.89E-6,0
GSAT0220 (GALILEO 24),2018-060D,2024-01-19T06:16:32.087136,1.70475422,.0005456,57.3023,5.5089,289.4597,70.4832,0,U,43567,999,3417,0,-.86E-6,0
BEIDOU-3 M5,2018-062A,2024-01-19T00:52:28.918848,1.86228563,.0001627,54.1537,212.2491,349.7481,10.2767,0,U,43581,999,3724,0,.109E-5,0
BEIDOU-3 M6,2018-062B,2024-01-20T12:19:55.223040,1.86229568,.0007079,54.1531,212.1882,40.3476,319.7343,0,U,43582,999,3727,0,.109E-5,0
BEIDOU-3 M12,2018-067A,2024-01-20T10:46:19.357824,1.86231548,.0008209,54.2423,210.8586,31.1245,328.9511,0,U,43602,999,3675,0,.109E-5,0
BEIDOU-3 M11,2018-067B,2024-01-20T01:05:51.793440,1.86231468,.00049,54.2393,210.8377,28.6811,331.3728,0,U,43603,999,3677,0,.11E-5,0
BEIDOU-3 M13,2018-072A,2024-01-20T00:07:52.395456,1.86231052,.0007281,55.8745,91.8606,285.2033,74.7544,0,U,43622,999,3628,0,-.69E-6,0
